[{"OBJECT_NAME":"ZY-1 02D","OBJECT_ID":"2019-059A","EPOCH":"2026-03-09T22:47:25.027872","MEAN_MOTION":14.35449537,"ECCENTRICITY":0.00025574,"INCLINATION":98.3302,"RA_OF_ASC_NODE":133.9003,"ARG_OF_PERICENTER":74.5944,"MEAN_ANOMALY":285.5525,"EPHEMERIS_TYPE":0,"CLASSIFICATION_TYPE":"U","NORAD_CAT_ID":44528,"ELEMENT_SET_NO":999,"REV_AT_EPOCH":34010,"BSTAR":2.8589968e-5,"MEAN_MOTION_DOT":4.0e-7,"MEAN_MOTION_DDOT":0},{"OBJECT_NAME":"IRIDIUM 63","OBJECT_ID":"1998-021B","EPOCH":"2026-03-09T19:43:07.200768","MEAN_MOTION":14.368251,"ECCENTRICITY":0.00022925,"INCLINATION":86.4022,"RA_OF_ASC_NODE":330.6926,"ARG_OF_PERICENTER":90.4846,"MEAN_ANOMALY":269.6614,"EPHEMERIS_TYPE":0,"CLASSIFICATION_TYPE":"U","NORAD_CAT_ID":25286,"ELEMENT_SET_NO":999,"REV_AT_EPOCH":46198,"BSTAR":0.00014985122,"MEAN_MOTION_DOT":4.62e-6,"MEAN_MOTION_DDOT":0}]
